{"type":"FeatureCollection","features":[{"type":"Feature","properties":{"ADM3_EN":"City of Muntinlupa","ADM3_PCODE":"PH1307603","ADM2_EN":"Metropolitan Manila Fourth District","ADM2_PCODE":"PH13076","ADM1_EN":"National Capital Region (NCR)","ADM1_PCODE":"PH13","ADM0_EN":"Philippines (the)","ADM0_PCODE":"PH","date":"2022-11-09","validOn":"2023-11-06","validTo":null,"ADM3_REF":null,"ADM3ALT1EN":null,"Shape_Leng":0.391298039728,"Shape_Area":0.00328291918794,"AREA_SQKM":39.1721763072,"psgc_id":"PH1380800","psgc_code":"1380800000","psgc_name":"City of Muntinlupa","psgc_status":"matched","match_confidence":1.0,"psgc_type":"highly_urbanized_city","match_method":"exact","namria_adm2_pcode":"PH13076","region":"National Capital Region (NCR)","province":null},"geometry":{"type":"Polygon","coordinates":[[[121.05738463300008,14.466723355000056],[121.05097512300006,14.397121149000043],[121.0573845020001,14.37863958500003],[121.04848403300002,14.367288803000065],[121.02927848000002,14.365855122000028],[121.01945223300004,14.353054343000053],[121.00689103200011,14.353943146000063],[121.00934865700003,14.39167702900005],[121.02426,14.43722],[121.04141463600001,14.44385806200006],[121.04668523600003,14.467856441000038],[121.05738463300008,14.466723355000056]]]}}]}